ONEWEB-0670             
1 55829U 23029AK  24102.48744059  .00000287  00000+0  73887-3 0  9997
2 55829  87.8911  88.2585 0001610  69.9999 290.1304 13.14500648 54763
ONEWEB-0671             
1 55830U 23029AL  24102.53228969  .00000032  00000+0  48560-4 0  9991
2 55830  87.9098 103.5409 0001671  81.8679 278.2643 13.19724344 53828
ONEWEB-0672             
1 55831U 23029AM  24102.58672356  .00000010  00000+0 -79643-5 0  9994
2 55831  87.9170  72.9355 0002318  86.5687 273.5712 13.20769367 55990
ONEWEB-0673             
1 55832U 23029AN  24102.50860162  .00000040  00000+0  68391-4 0  9990
2 55832  87.9097 103.5135 0001643  85.6661 274.4659 13.19725714 53824
ONEWEB-0674             
1 55833U 23029AP  24102.45571183 -.00000437  00000+0 -12136-2 0  9993
2 55833  87.8905  88.2735 0001790  67.3895 292.7424 13.14502610 54744
ONEWEB-0675             
1 55834U 23029AQ  24102.52438607  .00000052  00000+0  97540-4 0  9990
2 55834  87.9102 103.5404 0002183 100.1351 260.0028 13.19723867 54550
ONEWEB-0720             
1 55835U 23029AR  24102.51648746  .00000082  00000+0  17173-3 0  9993
2 55835  87.9102 103.5436 0001450  97.4347 262.6950 13.19723203 53763
ONEWEB-0537             
1 56046U 23043A   24102.51846364 -.00000003  00000+0 -41506-4 0  9993
2 56046  87.9143  27.3287 0002193  85.3413 274.7969 13.16596592 54137
